*******************************************************************************
 Revised: Dec 02, 2022             Gaia Observatory                     -139479
                               http://sci.esa.int/gaia/

 BACKGROUND:
  Gaia is designed and operated by the European Space Agency. It launched
  December 19, 2013 @ 09:12 UTC on a Soyuz launcher from Kourou, French Guiana.

  On 2014-Jan-08, it arrived at its operational Lissajous orbit around the 
  gravitationally stable Earth-Sun Lagrange-point L2, roughly 1.5 million km 
  from Earth in the direction opposite the Sun.  The orbit is not shadowed by 
  Earth eclipses. The orbit period is about 180 days; the size of the orbit 
  is typically 340,000 x 90,000 km. 
 
 MISSION:
  Gaia's 5-year primary mission is to ... 

    * Measure the positions of ~1 billion stars both in our Galaxy and other 
       members of the Local Group, with an accuracy down to 24 uas 
    * Perform spectral and photometric measurements of all objects 
    * Derive space velocities of the Galaxy's constituent stars using the 
       stellar distances and motions
    * Create a three-dimensional structural map of the Galaxy

  Additional expected results include extrasolar planet detection, brown dwarf 
  detection, solar system asteroid discoveries, supernova early detection, and 
  testing of Einstein's general relativity.
 
 GAIA SPACECRAFT: 
  Spacecraft dry mass total       1392 kg
  Propellant                       237 kg
  Total launch mass               2029 kg
  Power: 12.8 m^2 solar array provides up to 1910 Watts

 SCIENCE INSTRUMENTS:
  Single integrated instrument that comprises three major functions: 
  astrometry, photometry (320-1000 nm) and spectrometry (846-874 nm). 

  The three functions use two common telescopes and a shared focal plane, 
  with each function having a dedicated area on the large 0.5m x 1m CCD 
  detector array.

 SPACECRAFT TRAJECTORY (from ESA 2022-Nov-29, predicts thereafter)
  Trajectory name                                    Start         Stop
  --------------------------------------------    -----------   -----------
  ORB1_20221129_000001                            2013-Dec-19   2026-Sep-14 
*******************************************************************************


*******************************************************************************
Ephemeris / WWW_USER Wed Jan  4 12:30:24 2023 Pasadena, USA      / Horizons    
*******************************************************************************
Target body name: Gaia (spacecraft) (-139479)     {source: gaia_merged}
Center body name: Solar System Barycenter (0)     {source: DE441}
Center-site name: BODYCENTRIC
*******************************************************************************
Start time      : A.D. 2023-Jan-01 00:00:00.0000 UT      
Stop  time      : A.D. 2026-Aug-30 00:00:00.0000 UT      
Step-size       : 1440 minutes
*******************************************************************************
Target pole/equ : No model available
Target radii    : (unavailable)                                                
Center geodetic : 0.00000000,0.00000000,0.0000000 {E-lon(deg),Lat(deg),Alt(km)}
Center cylindric: 0.00000000,0.00000000,0.0000000 {E-lon(deg),Dxy(km),Dz(km)}
Center pole/equ : ICRF
Center radii    : (undefined)                                                  
Target primary  : Earth (R_eq= 6378.137) km
Vis. interferer : None
Rel. light bend : Sun                             {source: gaia_merged}
Rel. lght bnd GM: 1.3271E+11 km^3/s^2                                          
Atmos refraction: NO (AIRLESS)
RA format       : HMS
Time format     : CAL 
EOP file        : eop.230102.p230328                                           
EOP coverage    : DATA-BASED 1962-JAN-20 TO 2023-JAN-02. PREDICTS-> 2023-MAR-27
Units conversion: 1 au= 149597870.700 km, c= 299792.458 km/s, 1 day= 86400.0 s 
Table cut-offs 1: Elevation ( 30.0deg=YES),Airmass     n.a.    , Daylight (NO )
Table cut-offs 2: Solar elongation (  0.0,180.0=NO ),Local Hour Angle( 4.6=YES)
Table cut-offs 3: RA/DEC angular rate (     0.0=NO )                           
*************************************************************************************************************************************************************************************************************************************
 Date__(UT)__HR:MN     R.A._____(ICRF)_____DEC  dRA*cosD d(DEC)/dt  a-mass mag_ex    APmag   S-brt                r             delta     S-O-T /r     S-T-O  L_Ap_Hour_Ang  Sky_motion  Sky_mot_PA  RelVel-ANG  Lun_Sky_Brt  sky_SNR
*************************************************************************************************************************************************************************************************************************************
$$SOE
 2026-Apr-25 00:00     14 09 00.54 -12 57 27.3  136.7733  -48.8923    n.a.   n.a.     n.a.    n.a.   1.015978695457  1.02092770152851   32.9460 /T    0.1868           n.a.   2.4208243   109.67042   0.9683861         n.a.     n.a.
 2026-Apr-26 00:00     14 12 45.34 -13 16 54.4  136.8950  -48.3705    n.a.   n.a.     n.a.    n.a.   1.016221340058  1.02121778069284   32.0348 /T    0.1821           n.a.   2.4198229   109.46034   0.9580507         n.a.     n.a.
 2026-Apr-27 00:00     14 16 30.64 -13 36 08.9  137.0203  -47.8353    n.a.   n.a.     n.a.    n.a.   1.016462164998  1.02150468234141   31.1241 /T    0.1775           n.a.   2.4188370   109.24465   0.9475304         n.a.     n.a.
 2026-Apr-28 00:00     14 20 16.46 -13 55 10.4  137.1490  -47.2868    n.a.   n.a.     n.a.    n.a.   1.016701123557  1.02178835157791   30.2137 /T    0.1728           n.a.   2.4178670   109.02338   0.9368198         n.a.     n.a.
 2026-Apr-29 00:00     14 24 02.80 -14 13 58.6  137.2810  -46.7250    n.a.   n.a.     n.a.    n.a.   1.016938167841  1.02206873269135   29.3038 /T    0.1681           n.a.   2.4169132   108.79655   0.9259192         n.a.     n.a.
 2026-Apr-30 00:00     14 27 49.67 -14 32 33.1  137.4160  -46.1500    n.a.   n.a.     n.a.    n.a.   1.017173250869  1.02234577124135   28.3944 /T    0.1633           n.a.   2.4159760   108.56421   0.9148367         n.a.     n.a.
 2026-May-01 00:00     14 31 37.09 -14 50 53.7  137.5540  -45.5619    n.a.   n.a.     n.a.    n.a.   1.017406328848  1.02261941633022   27.4853 /T    0.1585           n.a.   2.4150556   108.32637   0.9035872         n.a.     n.a.
 2026-May-02 00:00     14 35 25.06 -15 09 00.0  137.6946  -44.9605    n.a.   n.a.     n.a.    n.a.   1.017637362596  1.02288962202051   26.5766 /T    0.1537           n.a.   2.4141517   108.08307   0.8921880         n.a.     n.a.
 2026-May-03 00:00     14 39 13.58 -15 26 51.7  137.8378  -44.3460    n.a.   n.a.     n.a.    n.a.   1.017866317293  1.02315634707875   25.6683 /T    0.1489           n.a.   2.4132639   107.83434   0.8806527         n.a.     n.a.
 2026-May-04 00:00     14 43 02.67 -15 44 28.5  137.9832  -43.7184    n.a.   n.a.     n.a.    n.a.   1.018093160662  1.02341955315736   24.7605 /T    0.1440           n.a.   2.4123915   107.58022   0.8689870         n.a.     n.a.
 2026-May-05 00:00     14 46 52.33 -16 01 50.1  138.1307  -43.0778    n.a.   n.a.     n.a.    n.a.   1.018317860549  1.02367920236762   23.8530 /T    0.1391           n.a.   2.4115340   107.32075   0.8571889         n.a.     n.a.
 2026-May-06 00:00     14 50 42.57 -16 18 56.1  138.2799  -42.4242    n.a.   n.a.     n.a.    n.a.   1.018540382879  1.02393525524763   22.9459 /T    0.1342           n.a.   2.4106911   107.05596   0.8452511         n.a.     n.a.
 2026-May-07 00:00     14 54 33.40 -16 35 46.3  138.4308  -41.7576    n.a.   n.a.     n.a.    n.a.   1.018760690492  1.02418766959487   22.0393 /T    0.1293           n.a.   2.4098624   106.78591   0.8331637         n.a.     n.a.
 2026-May-08 00:00     14 58 24.81 -16 52 20.4  138.5829  -41.0782    n.a.   n.a.     n.a.    n.a.   1.018978742783  1.02443640011710   21.1331 /T    0.1244           n.a.   2.4090479   106.51065   0.8209164         n.a.     n.a.
 2026-May-09 00:00     15 02 16.81 -17 08 38.0  138.7362  -40.3860    n.a.   n.a.     n.a.    n.a.   1.019194495918  1.02468139863945   20.2272 /T    0.1194           n.a.   2.4082476   106.23022   0.8085006         n.a.     n.a.
 2026-May-10 00:00     15 06 09.41 -17 24 38.8  138.8904  -39.6811    n.a.   n.a.     n.a.    n.a.   1.019407903331  1.02492261461391   19.3219 /T    0.1144           n.a.   2.4074615   105.94468   0.7959094         n.a.     n.a.
 2026-May-11 00:00     15 10 02.60 -17 40 22.5  139.0453  -38.9637    n.a.   n.a.     n.a.    n.a.   1.019618916374  1.02515999576181   18.4169 /T    0.1094           n.a.   2.4066897   105.65408   0.7831382         n.a.     n.a.
 2026-May-12 00:00     15 13 56.39 -17 55 48.9  139.2006  -38.2338    n.a.   n.a.     n.a.    n.a.   1.019827484996  1.02539348875526   17.5124 /T    0.1044           n.a.   2.4059323   105.35849   0.7701847         n.a.     n.a.
 2026-May-13 00:00     15 17 50.78 -18 10 57.7  139.3562  -37.4915    n.a.   n.a.     n.a.    n.a.   1.020033558415  1.02562303988953   16.6084 /T    0.0994           n.a.   2.4051893   105.05795   0.7570489         n.a.     n.a.
 2026-May-14 00:00     15 21 45.77 -18 25 48.4  139.5118  -36.7370    n.a.   n.a.     n.a.    n.a.   1.020237085753  1.02584859571613   15.7048 /T    0.0943           n.a.   2.4044608   104.75254   0.7437325         n.a.     n.a.
 2026-May-15 00:00     15 25 41.35 -18 40 20.9  139.6672  -35.9704    n.a.   n.a.     n.a.    n.a.   1.020438016600  1.02607010360691   14.8018 /T    0.0893           n.a.   2.4037465   104.44231   0.7302393         n.a.     n.a.
 2026-May-16 00:00     15 29 37.53 -18 54 34.9  139.8221  -35.1918    n.a.   n.a.     n.a.    n.a.   1.020636301472  1.02628751221152   13.8994 /T    0.0842           n.a.   2.4030465   104.12733   0.7165742         n.a.     n.a.
